OBJECT C                
1 57582U 23117C   25212.18759894  .00007729  00000+0  29731-3 0  9993
2 57582  97.4421 286.9392 0007262 306.2006  53.8561 15.26654753109382
